CCSDS_OMM_VERS,COMMENT,CREATION_DATE,ORIGINATOR,OBJECT_NAME,OBJECT_ID,CENTER_NAME,REF_FRAME,TIME_SYSTEM,MEAN_ELEMENT_THEORY,EPOCH,MEAN_MOTION,ECCENTRICITY,INCLINATION,RA_OF_ASC_NODE,ARG_OF_PERICENTER,MEAN_ANOMALY,EPHEMERIS_TYPE,CLASSIFICATION_TYPE,NORAD_CAT_ID,ELEMENT_SET_NO,REV_AT_EPOCH,BSTAR,MEAN_MOTION_DOT,MEAN_MOTION_DDOT,SEMIMAJOR_AXIS,PERIOD,APOAPSIS,PERIAPSIS,OBJECT_TYPE,RCS_SIZE,COUNTRY_CODE,LAUNCH_DATE,SITE,DECAY_DATE,FILE,GP_ID,TLE_LINE0,TLE_LINE1,TLE_LINE2
2.0,GENERATED VIA SPACE-TRACK.ORG API,2022-08-19T22:36:12,18 SPCS,STARLINK-3665,2022-029L,EARTH,TEME,UTC,SGP4,2022-08-19T22:00:00.999936,15.08835675,0.0001439,53.2181,155.0583,68.4884,54.3093,0,U,52098,999,2473,-0.0013216,-0.00021257,0.0,6917.894,95.438,540.754,538.763,PAYLOAD,LARGE,US,2022-03-19,AFETR,,3540477,210520633,0 STARLINK-3665,1 52098U 22029L   22231.91667824 -.00021257  00000-0 -13216-2 0  9996,2 52098  53.2181 155.0583 0001439  68.4884  54.3093 15.08835675 24736
2.0,GENERATED VIA SPACE-TRACK.ORG API,2022-08-20T03:27:48,18 SPCS,STARLINK-4185,2022-083H,EARTH,TEME,UTC,SGP4,2022-08-19T22:00:00.999936,15.49841999,0.0001054,53.2157,242.8697,58.5113,128.8468,0,U,53139,999,130,0.00091569,0.00051784,0.0,6795.325,92.913,417.906,416.474,PAYLOAD,LARGE,US,2022-07-17,AFETR,,3540705,210550078,0 STARLINK-4185,1 53139U 22083H   22231.91667824  .00051784  00000-0  91569-3 0  9997,2 53139  53.2157 242.8697 0001054  58.5113 128.8468 15.49841999  1307
2.0,GENERATED VIA SPACE-TRACK.ORG API,2022-08-20T03:27:48,18 SPCS,STARLINK-3876,2022-045Z,EARTH,TEME,UTC,SGP4,2022-08-19T22:00:00.999936,15.08814338,0.0002049,53.2171,265.0392,43.4598,54.3333,0,U,52354,999,130,0.0022588,0.00035819,0.0,6917.959,95.439,541.241,538.406,PAYLOAD,LARGE,US,2022-04-29,AFETR,,3540705,210549719,0 STARLINK-3876,1 52354U 22045Z   22231.91667824  .00035819  00000-0  22588-2 0  9998,2 52354  53.2171 265.0392 0002049  43.4598  54.3333 15.08814338  1301
2.0,GENERATED VIA SPACE-TRACK.ORG API,2022-08-20T03:27:48,18 SPCS,STARLINK-4195,2022-062AS,EARTH,TEME,UTC,SGP4,2022-08-19T22:00:00.999936,15.49876586,0.0001388,53.2174,92.7445,47.2451,132.3753,0,U,52870,999,130,4.5136e-05,2.11e-05,0.0,6795.224,92.911,418.032,416.146,PAYLOAD,LARGE,US,2022-06-17,AFETR,,3540705,210550481,0 STARLINK-4195,1 52870U 22062AS  22231.91667824  .00002110  00000-0  45136-4 0  9994,2 52870  53.2174  92.7445 0001388  47.2451 132.3753 15.49876586  1307
2.0,GENERATED VIA SPACE-TRACK.ORG API,2022-08-20T03:27:48,18 SPCS,STARLINK-3997,2022-052M,EARTH,TEME,UTC,SGP4,2022-08-19T22:00:00.999936,15.08861053,0.0001736,53.2195,345.0477,45.0103,247.5609,0,U,52609,999,130,-0.0041553,-0.00065854,0.0,6917.816,95.436,540.882,538.48,PAYLOAD,LARGE,US,2022-05-14,AFETR,,3540705,210549747,0 STARLINK-3997,1 52609U 22052M   22231.91667824 -.00065854  00000-0 -41553-2 0  9996,2 52609  53.2195 345.0477 0001736  45.0103 247.5609 15.08861053  1303
2.0,GENERATED VIA SPACE-TRACK.ORG API,2022-08-20T03:27:48,18 SPCS,STARLINK-3807,2022-045Y,EARTH,TEME,UTC,SGP4,2022-08-19T22:00:00.999936,15.08810929,0.0002045,53.2184,265.0483,37.2526,320.5494,0,U,52353,999,130,0.00075145,0.00011682,0.0,6917.969,95.439,541.249,538.42,PAYLOAD,LARGE,US,2022-04-29,AFETR,,3540705,210549578,0 STARLINK-3807,1 52353U 22045Y   22231.91667824  .00011682  00000-0  75145-3 0  9997,2 52353  53.2184 265.0483 0002045  37.2526 320.5494 15.08810929  1301
2.0,GENERATED VIA SPACE-TRACK.ORG API,2022-08-20T03:27:48,18 SPCS,STARLINK-4266,2022-062AR,EARTH,TEME,UTC,SGP4,2022-08-19T22:00:00.999936,15.73131087,0.0004104,53.2147,91.1355,2.8576,210.9565,0,U,52869,999,130,0.00031312,0.00043436,0.0,6728.092,91.537,352.718,347.195,PAYLOAD,LARGE,US,2022-06-17,AFETR,,3540705,210549494,0 STARLINK-4266,1 52869U 22062AR  22231.91667824  .00043436  00000-0  31312-3 0  9998,2 52869  53.2147  91.1355 0004104   2.8576 210.9565 15.73131087  1303
2.0,GENERATED VIA SPACE-TRACK.ORG API,2022-08-20T03:27:48,18 SPCS,STARLINK-3947,2022-052K,EARTH,TEME,UTC,SGP4,2022-08-19T22:00:00.999936,15.08835142,0.0001367,53.2149,350.0431,62.9527,347.3513,0,U,52607,999,130,-0.0023345,-0.00037245,0.0,6917.895,95.438,540.706,538.815,PAYLOAD,LARGE,US,2022-05-14,AFETR,,3540705,210550452,0 STARLINK-3947,1 52607U 22052K   22231.91667824 -.00037245  00000-0 -23345-2 0  9996,2 52607  53.2149 350.0431 0001367  62.9527 347.3513 15.08835142  1307
2.0,GENERATED VIA SPACE-TRACK.ORG API,2022-08-20T03:27:48,18 SPCS,STARLINK-3816,2022-045W,EARTH,TEME,UTC,SGP4,2022-08-19T22:00:00.999936,15.08812417,0.0002001,53.2164,265.0533,46.7061,251.0517,0,U,52351,999,130,0.0022855,0.00036246,0.0,6917.965,95.439,541.214,538.445,PAYLOAD,LARGE,US,2022-04-29,AFETR,,3540705,210549437,0 STARLINK-3816,1 52351U 22045W   22231.91667824  .00036246  00000-0  22855-2 0  9997,2 52351  53.2164 265.0533 0002001  46.7061 251.0517 15.08812417  1302
2.0,GENERATED VIA SPACE-TRACK.ORG API,2022-08-20T03:27:48,18 SPCS,STARLINK-3754,2022-045V,EARTH,TEME,UTC,SGP4,2022-08-19T22:00:00.999936,15.08813737,0.0002001,53.2176,265.0572,44.3741,293.4109,0,U,52350,999,130,0.0024035,0.00038144,0.0,6917.961,95.439,541.21,538.441,PAYLOAD,LARGE,US,2022-04-29,AFETR,,3540705,210550133,0 STARLINK-3754,1 52350U 22045V   22231.91667824  .00038144  00000-0  24035-2 0  9997,2 52350  53.2176 265.0572 0002001  44.3741 293.4109 15.08813737  1309
2.0,GENERATED VIA SPACE-TRACK.ORG API,2022-08-19T22:36:12,18 SPCS,STARLINK-3673,2022-029F,EARTH,TEME,UTC,SGP4,2022-08-19T22:00:00.999936,15.0884268,0.0001469,53.2178,155.0581,71.1751,31.6293,0,U,52093,999,2473,-0.0013596,-0.00021862,0.0,6917.872,95.437,540.753,538.721,PAYLOAD,LARGE,US,2022-03-19,AFETR,,3540476,210521075,0 STARLINK-3673,1 52093U 22029F   22231.91667824 -.00021862  00000-0 -13596-2 0  9994,2 52093  53.2178 155.0581 0001469  71.1751  31.6293 15.08842680 24736
2.0,GENERATED VIA SPACE-TRACK.ORG API,2022-08-20T03:27:48,18 SPCS,STARLINK-3819,2022-045U,EARTH,TEME,UTC,SGP4,2022-08-19T22:00:00.999936,15.08824836,0.0002012,53.2148,265.0499,41.6282,216.1801,0,U,52349,999,130,0.00079339,0.00012356,0.0,6917.927,95.439,541.184,538.4,PAYLOAD,LARGE,US,2022-04-29,AFETR,,3540705,210549991,0 STARLINK-3819,1 52349U 22045U   22231.91667824  .00012356  00000-0  79339-3 0  9990,2 52349  53.2148 265.0499 0002012  41.6282 216.1801 15.08824836  1309
2.0,GENERATED VIA SPACE-TRACK.ORG API,2022-08-20T03:27:48,18 SPCS,STARLINK-4274,2022-062AM,EARTH,TEME,UTC,SGP4,2022-08-19T22:00:00.999936,15.49922609,0.0001542,53.2173,92.7327,64.0599,114.6521,0,U,52865,999,130,-0.00073734,-0.00042131,0.0,6795.089,92.908,418.002,415.906,PAYLOAD,LARGE,US,2022-06-17,AFETR,,3540705,210549907,0 STARLINK-4274,1 52865U 22062AM  22231.91667824 -.00042131  00000-0 -73734-3 0  9991,2 52865  53.2173  92.7327 0001542  64.0599 114.6521 15.49922609  1305
2.0,GENERATED VIA SPACE-TRACK.ORG API,2022-08-20T03:27:48,18 SPCS,STARLINK-3829,2022-045T,EARTH,TEME,UTC,SGP4,2022-08-19T22:00:00.999936,15.08812078,0.0002113,53.2171,265.0569,34.423,283.3457,0,U,52348,999,130,0.0023535,0.00037339,0.0,6917.966,95.439,541.293,538.369,PAYLOAD,LARGE,US,2022-04-29,AFETR,,3540705,210550275,0 STARLINK-3829,1 52348U 22045T   22231.91667824  .00037339  00000-0  23535-2 0  9993,2 52348  53.2171 265.0569 0002113  34.4230 283.3457 15.08812078  1305
2.0,GENERATED VIA SPACE-TRACK.ORG API,2022-08-20T03:27:48,18 SPCS,STARLINK-4012,2022-052E,EARTH,TEME,UTC,SGP4,2022-08-19T22:00:00.999936,15.08835981,0.0001658,53.2163,345.0489,52.9502,104.787,0,U,52602,999,130,-0.00085953,-0.0001394,0.0,6917.893,95.438,540.905,538.611,PAYLOAD,LARGE,US,2022-05-14,AFETR,,3540705,210549878,0 STARLINK-4012,1 52602U 22052E   22231.91667824 -.00013940  00000-0 -85953-3 0  9991,2 52602  53.2163 345.0489 0001658  52.9502 104.7870 15.08835981  1302
2.0,GENERATED VIA SPACE-TRACK.ORG API,2022-08-20T03:27:48,18 SPCS,STARLINK-3812,2022-045R,EARTH,TEME,UTC,SGP4,2022-08-19T22:00:00.999936,15.08810799,0.0001658,53.2152,265.0512,42.4226,235.3508,0,U,52346,999,130,0.0022936,0.00036374,0.0,6917.97,95.439,540.982,538.688,PAYLOAD,LARGE,US,2022-04-29,AFETR,,3540705,210549718,0 STARLINK-3812,1 52346U 22045R   22231.91667824  .00036374  00000-0  22936-2 0  9993,2 52346  53.2152 265.0512 0001658  42.4226 235.3508 15.08810799  1309
2.0,GENERATED VIA SPACE-TRACK.ORG API,2022-08-20T03:27:48,18 SPCS,STARLINK-4027,2022-052D,EARTH,TEME,UTC,SGP4,2022-08-19T22:00:00.999936,15.0882512,0.0001618,53.2151,345.0443,54.7122,83.0234,0,U,52601,999,130,-0.00088099,-0.00014276,0.0,6917.926,95.438,540.91,538.672,PAYLOAD,LARGE,US,2022-05-14,AFETR,,3540705,210549746,0 STARLINK-4027,1 52601U 22052D   22231.91667824 -.00014276  00000-0 -88099-3 0  9997,2 52601  53.2151 345.0443 0001618  54.7122  83.0234 15.08825120  1309
2.0,GENERATED VIA SPACE-TRACK.ORG API,2022-08-20T03:27:48,18 SPCS,STARLINK-3852,2022-045Q,EARTH,TEME,UTC,SGP4,2022-08-19T22:00:00.999936,15.08796921,0.0001457,53.2133,265.0435,56.0006,121.7975,0,U,52345,999,130,0.0020555,0.00032538,0.0,6918.012,95.44,540.885,538.869,PAYLOAD,LARGE,US,2022-04-29,AFETR,,3540705,210549577,0 STARLINK-3852,1 52345U 22045Q   22231.91667824  .00032538  00000-0  20555-2 0  9995,2 52345  53.2133 265.0435 0001457  56.0006 121.7975 15.08796921  1301
2.0,GENERATED VIA SPACE-TRACK.ORG API,2022-08-20T03:27:48,18 SPCS,STARLINK-4191,2022-062AG,EARTH,TEME,UTC,SGP4,2022-08-19T22:00:00.999936,15.49529381,0.0001699,53.2173,92.6422,44.6115,126.2508,0,U,52860,999,130,-0.02079,-0.01058146,0.0,6796.239,92.931,419.258,416.949,PAYLOAD,LARGE,US,2022-06-17,AFETR,,3540705,210550189,0 STARLINK-4191,1 52860U 22062AG  22231.91667824 -.01058146  00000-0 -20790-1 0  9992,2 52860  53.2173  92.6422 0001699  44.6115 126.2508 15.49529381  1300
